#cP2022  4  3 18  0  0.00000000     576 d+D   IGb14 EXT AIUB
## 2204  64800.00000000   300.00000000 59672 0.7500000000000
+   68   G01G02G03G04G05G06G07G08G09G10G11G12G13G14G15G16G17
+        G18G19G20G21G22G23G24G25G26G27G28G29G30G31G32R01R02
+        R03R04R05R07R08R09R12R13R14R15R17R18R19R20R21R22R24
+        E01E02E03E04E05E07E08E09E14E18E19E21E24E25E27E30E31
+          0  0  0  0  0  0  0  0  0  0  0  0  0  0  0  0  0
++         6  7  6  8  7  6  7  6  6  6  9  7  7  7  7  7  8
++         8  7  7  8  7  6  6  6  6  6  7  7  6  7  6  7  5
++         7  6  7  7  6  6  7  8  7  7  8  7  8  9  8  8  8
++         6  6  5  6  6  6  5  6  6  6  7  6  7  6  6  6  6
++         0  0  0  0  0  0  0  0  0  0  0  0  0  0  0  0  0
%c M  cc GPS ccc cccc cccc cccc cccc ccccc ccccc ccccc ccccc
%c cc cc ccc ccc cccc cccc cccc cccc ccccc ccccc ccccc ccccc
%f  1.2500000  1.025000000  0.00000000000  0.000000000000000
%f  0.0000000  0.000000000  0.00000000000  0.000000000000000
%i    0    0    0    0      0      0      0      0         0
%i    0    0    0    0      0      0      0      0         0
/* Center for Orbit Determination in Europe (CODE)          
/* Ultra-rapid GRE orbits starting year-day 22093 18 hour   
/* Observed/predicted: 24/24 hours (data used up to 094R)   
/* PCV:IGS14      OL/AL:FES2014b NONE     YN ORB:CoN CLK:BRD
*  2022  4  5  7 40  0.00000000
PG01 -13477.346021   6776.674288  21525.798056    392.247548               P   P
PG02  14160.405653  15827.411822 -15204.679570   -652.915342               P   P
PG03 -22669.409218  12191.614852   6198.787904   -193.832737               P   P
PG04 -21605.485347   2025.549395 -15362.503788   -178.405872               P   P
PG05  19294.868557    671.913920 -18468.034904    -77.189012               P   P
PG06   5547.008745  25713.750162  -3277.548125    255.655677               P   P
PG07  -6520.545691  21735.844292 -12991.916869    319.131250               P   P
PG08 -25442.833228  -4931.698127   6579.946038    -62.646950               P   P
PG09 -12544.215766  10926.380360 -20775.853807   -345.686807               P   P
PG10   5006.204602 -19167.173362  17693.665468   -369.009758               P   P
PG11  12744.194098  16603.447769 -16365.361700    -49.495303               P   P
PG12  23434.546440  -8133.063003   9046.707900   -195.603631               P   P
PG13  23049.800877  13381.014566    -82.588563    288.748025               P   P
PG14  -6726.745300  19424.322130  16769.518841   -100.099414               P   P
PG15  25739.293387   1883.108596   6530.563241    -71.355327               P   P
PG16 -16394.266714  -6124.262753 -20383.143069   -488.419499               P   P
PG17   4300.349658  17173.086333  20215.761605    596.342843               P   P
PG18   6887.347938 -21669.152574 -13644.570269    203.157332               P   P
PG19  11852.526488  18106.266373  15268.885184    140.286291               P   P
PG20  12752.523732   9160.472623 -21404.966391    515.972944               P   P
PG21 -16272.619882  -5158.384353  21154.367448    160.148722               P   P
PG22 -14226.336264 -18093.064973  13822.706535    238.461051               P   P
PG23  14847.623039 -20077.100697   8898.005750    -12.541470               P   P
PG24  15446.679936  -2513.261738  21169.592066    260.532151               P   P
PG25  19336.424539 -17788.018716  -2959.160312    307.822840               P   P
PG26  -6684.431820 -14707.351595 -21130.936158    196.269383               P   P
PG27 -22996.786742 -12928.066016  -4779.123050    175.069483               P   P
PG28   1528.651713  16426.974626  21376.824425    373.780160               P   P
PG29  14368.095694  -8348.892227 -20784.895484   -499.536395               P   P
PG30   -964.229997  25839.289142  -5391.060068   -522.287591               P   P
PG31  -7029.583392 -24661.652910  -6026.121661   -172.059599               P   P
PG32  -8196.920370 -17359.294112  18574.249326    -98.929050               P   P
PR01 -25154.365012    158.300593   4192.258635      7.562339               P   P
PR02 -19115.034198   8074.098905 -14829.891179    514.550135               P   P
PR03  -1750.117000  11004.096565 -22898.670975     54.346398               P   P
PR04  16263.843431   7532.588200 -18112.474679    135.212018               P   P
PR05  25281.421939    112.841131  -3288.839448     90.630714               P   P
PR07    828.040287 -11006.550180  23038.406431     33.535006               P   P
PR08 -16392.079008  -7578.480320  18087.677500    -64.410269               P   P
PR09  13813.235800 -19883.085248   8162.684288     48.115679               P   P
PR12 -13542.829822   4802.828658 -21060.450732     17.777079               P   P
PR13 -14051.204316  19123.559881  -9378.615267    -20.328915               P   P
PR14  -6129.044214  22956.957893   9265.790859     76.168210               P   P
PR15   5043.480040  12994.355066  21377.262536     97.070821               P   P
PR17   5940.938998  20535.899688  13946.351617    515.038831               P   P
PR18  14638.344381  20725.389169  -2279.977082    112.537234               P   P
PR19  15615.813952  11449.113115 -16604.237759   -184.180154               P   P
PR20   7143.708585  -7980.951750 -23147.399723    -67.991205               P   P
PR21  -6837.008801 -21003.975606 -12743.717494   -290.870647               P   P
PR22 -14822.392383 -20584.040856   3166.417228   -174.937765               P   P
PR24  -6929.961127   8994.169312  22856.949078     87.643803               P   P
PE01  11021.616576  12481.976906  24467.948546   -610.373848               P   P
PE02 -11185.400079 -12331.990891 -24480.617615    290.826239               P   P
PE03 -22593.819799 -14874.744656  12008.176108   -544.742106               P   P
PE04  28778.831306   3310.377881   6094.818554   -999.800352               P   P
PE05  -3004.631593 -17907.139624  23384.097549   -193.761986               P   P
PE07 -18041.923631  10473.804808 -20984.899564   -655.465170               P   P
PE08 -28731.054975  -3014.713919  -6418.032402   -507.044300               P   P
PE09  17816.147396 -10532.036663  21175.067731   -473.524004               P   P
PE14 -15469.714983   7290.819973  16033.057077  -1803.056926               P   P
PE18  20918.165410 -10442.669875 -22574.963641  -1601.296066               P   P
PE19  20747.530152  15769.798982 -14022.843054  -2493.447339               P   P
PE21  -6201.949934  22998.044807  17570.340592   -726.635073               P   P
PE24  21537.295422 -20261.233687    982.264466   -543.931503               P   P
PE25   6432.108281 -23062.552607 -17399.266106   -569.283480               P   P
PE27 -20919.187201  20950.906022    186.826193   -269.151354               P   P
PE30 -22983.533203   5523.859673 -17841.405110   -405.553638               P   P
PE31  23198.186973  -6585.131778  17163.554166   -494.578904               P   P
EOF
